STARLINK-4096           
1 53160U 22083AE  25351.78077752  .00000734  00000+0  64163-4 0  9996
2 53160  53.2162 171.8235 0001178  83.7652 276.3474 15.08842049188990
STARLINK-4055           
1 53161U 22083AF  25352.22238172  .00000136  00000+0  26663-4 0  9991
2 53161  53.2162 169.8396 0001416  90.1567 269.9587 15.08837908189068
STARLINK-4114           
1 53162U 22083AG  25352.23806096  .00000782  00000+0  67196-4 0  9992
2 53162  53.2161 169.7810 0001729  93.7769 266.3421 15.08842459189063
STARLINK-4104           
1 53163U 22083AH  25352.22976075 -.00000342  00000+0 -33833-5 0  9993
2 53163  53.2159 169.9521 0001460  89.7612 270.3548 15.08845122189061
STARLINK-4116           
1 53164U 22083AJ  25352.22608176  .00001253  00000+0  96811-4 0  9992
2 53164  53.2167 169.8235 0001388  91.6632 268.4519 15.08831795189062
STARLINK-4090           
1 53165U 22083AK  25352.21134274 -.00000081  00000+0  13032-4 0  9998
2 53165  53.2159 169.8884 0001429  91.3288 268.7868 15.08834716189060
STARLINK-4110           
1 53166U 22083AL  25352.20860124  .00000087  00000+0  23587-4 0  9999
2 53166  53.2163 169.8016 0001521  88.4592 271.6575 15.08840113189067
STARLINK-3683           
1 53167U 22083AM  25352.16304312 -.00000372  00000+0 -52712-5 0  9999
2 53167  53.2171 155.0936 0001462  84.3426 275.7733 15.08833433189259
STARLINK-4105           
1 53168U 22083AN  25352.21502544 -.00000443  00000+0 -97563-5 0  9995
2 53168  53.2177 169.8737 0001481  88.0218 272.0944 15.08834932189067
STARLINK-4117           
1 53169U 22083AP  25351.67730781  .00001056  00000+0  84485-4 0  9998
2 53169  53.2163 157.5487 0001273  88.1995 271.9143 15.08822969189179
STARLINK-4095           
1 53170U 22083AQ  25352.17683135 -.00000225  00000+0  39186-5 0  9993
2 53170  53.2154 164.9942 0001183  78.1495 281.9630 15.08839724189127
STARLINK-4052           
1 53171U 22083AR  25352.15150938  .00000244  00000+0  33436-4 0  9993
2 53171  53.2163 139.9187 0001296  85.9112 274.2028 15.08842049189465
STARLINK-4299           
1 53172U 22083AS  25351.90450632 -.00000125  00000+0  10215-4 0  9999
2 53172  53.2163 166.1812 0001337  88.4674 271.6471 15.08840304189072
STARLINK-4300           
1 53173U 22083AT  25352.12347997 -.00000239  00000+0  30444-5 0  9997
2 53173  53.2174 145.2740 0001201  87.4763 272.6367 15.08835700189384
STARLINK-4205           
1 53174U 22083AU  25351.81392789 -.00000399  00000+0 -69462-5 0  9992
2 53174  53.2162 181.6059 0001546  92.1811 267.9359 15.08839271188854
STARLINK-4292           
1 53175U 22083AV  25351.81665847 -.00000272  00000+0  10088-5 0  9990
2 53175  53.2158 181.6600 0001505  90.7205 269.3960 15.08840131188859
STARLINK-4294           
1 53176U 22083AW  25352.15198787 -.00000426  00000+0 -86985-5 0  9994
2 53176  53.2175 155.0691 0001306  86.9697 273.1445 15.08836677189251
STARLINK-4298           
1 53177U 22083AX  25351.71868746  .00000863  00000+0  72269-4 0  9997
2 53177  53.2163 147.0933 0001387  82.1552 277.9598 15.08843848189323
STARLINK-4280           
1 53178U 22083AY  25352.20768046  .00000802  00000+0  68523-4 0  9996
2 53178  53.2167 169.9054 0001550  98.2430 261.8738 15.08816209189048
STARLINK-4276           
1 53179U 22083AZ  25351.80280512 -.00000023  00000+0  16627-4 0  9993
2 53179  53.2171 131.3232 0001269  91.4515 268.6623 15.08843426189556
STARLINK-4258           
1 53180U 22083BA  25352.09356691 -.00000213  00000+0  47054-5 0  9999
2 53180  53.2174 130.2898 0001270  85.8250 274.2887 15.08838794189593
STARLINK-4278           
1 53182U 22083BC  25351.71499855  .00000381  00000+0  42053-4 0  9997
2 53182  53.2174 147.1100 0001220  85.0758 275.0374 15.08839049189323
STARLINK-4268           
1 53183U 22083BD  25352.12071320 -.00000167  00000+0  76055-5 0  9990
2 53183  53.2179 135.2091 0001660  91.4405 268.6777 15.08836644189529
STARLINK-4257           
1 53184U 22083BE  25351.66664633 -.00003238  00000+0 -18546-3 0  9996
2 53184  53.2174 131.9214 0001152  97.3440 262.7683 15.08838695189546
STARLINK-4391           
1 53189U 22084A   25352.14582562 -.00000547  00000+0 -33675-4 0  9997
2 53189  97.6029  50.7908 0001147  90.6644 269.4715 15.05644518187786
STARLINK-4332           
1 53190U 22084B   25352.15966802  .00000080  00000+0  97769-5 0  9998
2 53190  97.6042  50.8430 0001625  90.8852 269.2561 15.05648735187780
STARLINK-4369           
1 53191U 22084C   25352.12635582  .00001373  00000+0  11141-3 0  9998
2 53191  97.6064  50.3465 0000448 172.1534 187.9697 15.01262538187078
STARLINK-4375           
1 53192U 22084D   25352.12367214  .00000228  00000+0  19979-4 0  9999
2 53192  97.6036  50.8034 0000819  98.3909 261.7411 15.05649881187778
STARLINK-4351           
1 53193U 22084E   25352.13004759  .00000225  00000+0  22034-4 0  9996
2 53193  97.6048  50.3484 0000880  97.3492 262.7833 15.01262481188098
STARLINK-4382           
1 53194U 22084F   25352.14028490 -.00000098  00000+0 -25650-5 0  9994
2 53194  97.6025  50.7895 0001169  90.7937 269.3424 15.05648433187105
STARLINK-4404           
1 53195U 22084G   25352.27694834  .00002019  00000+0  12251-4 0  9995
2 53195  97.6375  64.6327 0002398 287.8541  72.2463 15.79073521188626
STARLINK-4407           
1 53196U 22084H   25352.30987087  .00001265  00000+0  80070-5 0  9992
2 53196  97.6349  65.2124 0003064 287.8305  72.2627 15.79043659188642
STARLINK-4403           
1 53197U 22084J   25352.11895976  .00000611  00000+0  52135-4 0  9991
2 53197  97.6045  50.3490 0001865  81.1115 279.0321 15.01251399187079
STARLINK-4385           
1 53198U 22084K   25352.12265309 -.00000534  00000+0 -37074-4 0  9995
2 53198  97.6059  50.3485 0001170  94.8810 265.2548 15.01257779187730
STARLINK-4395           
1 53199U 22084L   25352.11536406  .00001446  00000+0  10438-3 0  9999
2 53199  97.6044  50.7978 0000933  91.3491 268.7843 15.05648589187103
STARLINK-4417           
1 53200U 22084M   25352.13474673  .00000140  00000+0  13924-4 0  9995
2 53200  97.6032  50.7805 0001085  91.8728 268.2623 15.05648326187761
STARLINK-4405           
1 53201U 22084N   25352.15136718  .00002299  00000+0  16347-3 0  9991
2 53201  97.6038  50.8951 0001114 111.0121 249.1225 15.05651290187115
STARLINK-4411           
1 53202U 22084P   25352.17074912 -.00000123  00000+0 -42934-5 0  9990
2 53202  97.6051  50.8790 0001018  96.9256 263.2086 15.05649507187115
STARLINK-4409           
1 53203U 22084Q   25352.16797823  .00000355  00000+0  28810-4 0  9994
2 53203  97.6052  50.8660 0001609  88.8232 271.3179 15.05651861187112
STARLINK-4410           
1 53204U 22084R   25352.18029500  .00014404  00000+0  11225-2 0  9997
2 53204  97.6034  50.4144 0002142  82.1796 277.9672 15.01299399187740
STARLINK-4397           
1 53205U 22084S   25352.16244103  .00000854  00000+0  63387-4 0  9996
2 53205  97.6047  50.8643 0001109  92.1579 267.9775 15.05648980187117
STARLINK-4408           
1 53206U 22084T   25352.17628398 -.00000264  00000+0 -14095-4 0  9999
2 53206  97.6050  50.8558 0000637 122.8220 237.3068 15.05649943187112
STARLINK-4413           
1 53207U 22084U   25352.17079996 -.00000223  00000+0 -12825-4 0  9998
2 53207  97.6035  50.3940 0003795  60.6998 299.4605 15.01253839187088
STARLINK-4425           
1 53208U 22084V   25352.17817706  .00000635  00000+0  53983-4 0  9993
2 53208  97.5995  50.4069 0002791  88.1382 272.0162 15.01271915187083
STARLINK-4423           
1 53209U 22084W   25352.16917987  .00000371  00000+0  33406-4 0  9990
2 53209  97.6027  50.3975 0003019  56.0159 304.1352 15.01259722187086
STARLINK-4427           
1 53210U 22084X   25352.17448758  .00000310  00000+0  28712-4 0  9995
2 53210  97.6040  50.4061 0003342  71.8069 288.3519 15.01262698187628
STARLINK-4416           
1 53212U 22084Z   25352.16521167  .00000184  00000+0  16976-4 0  9990
2 53212  97.6051  50.8525 0001635  91.4836 268.6579 15.05646724187104
STARLINK-4414           
1 53213U 22084AA  25352.15967822 -.00000141  00000+0 -64406-5 0  9999
2 53213  97.6033  50.3788 0002637  67.8664 292.2840 15.01258620187609
STARLINK-4353           
1 53214U 22084AB  25352.30039887  .00002043  00000+0  16355-3 0  9997
2 53214  97.6022  50.5225 0003692  72.9809 287.1819 15.01254104187103
STARLINK-4335           
1 53215U 22084AC  25352.14859506 -.00000239  00000+0 -12355-4 0  9992
2 53215  97.6030  50.8472 0000811 106.8369 253.2947 15.05646996187630
STARLINK-4376           
1 53216U 22084AD  25352.29668305 -.00000163  00000+0 -81204-5 0  9990
2 53216  97.6029  50.5146 0002226  64.6718 295.4737 15.01258668187103
STARLINK-4384           
1 53218U 22084AF  25352.12644436  .00000617  00000+0  46936-4 0  9997
2 53218  97.6032  50.8856 0000956  90.7139 269.4197 15.05654259187634
STARLINK-4373           
1 53219U 22084AG  25352.15414348  .00000309  00000+0  25660-4 0  9997
2 53219  97.6040  50.8231 0000680 114.1283 246.0015 15.05633195187115
STARLINK-4363           
1 53220U 22084AH  25352.15596991  .00000017  00000+0  58938-5 0  9995
2 53220  97.6031  50.3746 0000942 102.1046 258.0284 15.01259530187606
STARLINK-4377           
1 53221U 22084AJ  25352.14856234 -.00000556  00000+0 -38765-4 0  9999
2 53221  97.6029  50.3661 0000618 199.9927 160.1274 15.01261355187084
STARLINK-4356           
1 53224U 22084AM  25352.15226817  .00001303  00000+0  10591-3 0  9996
2 53224  97.6034  50.3707 0001754  89.4359 270.7067 15.01271539187081
STARLINK-4358           
1 53225U 22084AN  25352.15689951  .00000194  00000+0  17654-4 0  9994
2 53225  97.6042  50.8031 0001390  87.8709 272.2677 15.05645960187118
STARLINK-4359           
1 53226U 22084AP  25352.27445982 -.00000712  00000+0 -50878-4 0  9995
2 53226  97.6031  50.5014 0003819 179.9808 180.1417 15.01262620187108
STARLINK-4366           
1 53227U 22084AQ  25352.13751700 -.00000311  00000+0 -17357-4 0  9999
2 53227  97.6029  50.8022 0001180  94.5837 265.5524 15.05650817187112
